GLOBALSTAR M001         
1 25162U 98008A   25007.57423750 -.00000091  00000+0  40376-4 0  9992
2 25162  52.0041  80.6997 0001098 248.5124 258.9407 12.38205012223818
GLOBALSTAR M004         
1 25163U 98008B   25007.77976978 -.00000046  00000+0  31925-3 0  9999
2 25163  51.9974 183.5127 0001997 305.9315  67.7216 12.63384515241513
GLOBALSTAR M002         
1 25164U 98008C   25007.49599944 -.00000062  00000+0  28179-3 0  9998
2 25164  52.0022 283.1121 0000612 185.1224 174.9590 11.61506387165398
GLOBALSTAR M003         
1 25165U 98008D   25007.63166410 -.00000013  00000+0  81825-3 0  9996
2 25165  51.9975 253.1868 0007930 335.3614  40.0194 12.12064463213759
GLOBALSTAR M014         
1 25306U 98023A   25007.81929448 -.00000046  00000+0  59355-3 0  9997
2 25306  51.9805 208.8973 0002182  75.1993 298.2429 11.65477840172469
GLOBALSTAR M006         
1 25307U 98023B   25007.45468160 -.00000068  00000+0  15894-3 0  9991
2 25307  51.9924 256.2863 0003327 158.1407  12.6511 11.58171213198208
GLOBALSTAR M015         
1 25308U 98023C   25007.37148812 -.00000043  00000+0  69545-3 0  9997
2 25308  51.9848 347.5917 0012631 149.4127 358.7769 11.48855849175597
GLOBALSTAR M008         
1 25309U 98023D   25007.79046392 -.00000044  00000+0  40938-3 0  9990
2 25309  51.9986 303.0846 0002078 188.4308 188.0895 12.36060234218324
